NORAD_CAT_ID,OBJECT_NAME,OBJECT_TYPE,EPOCH,MEAN_MOTION,ECCENTRICITY,INCLINATION,RA_OF_ASC_NODE,ARG_OF_PERICENTER,MEAN_ANOMALY,BSTAR,MEAN_MOTION_DOT,MEAN_MOTION_DDOT,TLE_LINE0,TLE_LINE1,TLE_LINE2,SEMIMAJOR_AXIS,PERIOD,APOGEE,PERIGEE,DECAYED
52135.0,STARLINK-3729,PAYLOAD,2024-02-14 17:07:00,15.08837667,0.0001536,53.2175,213.8656,109.2674,250.8485,2.3518e-05,8.6e-07,0.0,0 STARLINK-3729,1 52135U 22029AZ  24045.71319539  .00000086  00000-0  23518-4 0  9991,2 52135  53.2175 213.8656 0001536 109.2674 250.8485 15.08837667107119,6917.888,95.438,540.815,538.69,0.0
52135.0,STARLINK-3729,PAYLOAD,2024-02-15 10:36:14,15.08837677,0.0001278,53.2167,210.594,91.532,268.5819,9.5403e-05,1.231e-05,0.0,0 STARLINK-3729,1 52135U 22029AZ  24046.44183432  .00001231  00000-0  95403-4 0  9998,2 52135  53.2167 210.5940 0001278  91.5320 268.5819 15.08837677107224,6917.887,95.438,540.637,538.868,0.0
52135.0,STARLINK-3729,PAYLOAD,2024-02-15 18:33:09,15.08843497,0.0001253,53.2163,209.1074,80.8578,279.2556,0.00013874,1.921e-05,0.0,0 STARLINK-3729,1 52135U 22029AZ  24046.77303061  .00001921  00000-0  13874-3 0  9993,2 52135  53.2163 209.1074 0001253  80.8578 279.2556 15.08843497107270,6917.87,95.437,540.602,538.868,0.0
52135.0,STARLINK-3729,PAYLOAD,2024-02-16 10:27:01,15.08843087,0.0001466,53.2165,206.1339,89.8472,270.2688,0.00015254,2.141e-05,0.0,0 STARLINK-3729,1 52135U 22029AZ  24047.43543072  .00002141  00000-0  15254-3 0  9994,2 52135  53.2165 206.1339 0001466  89.8472 270.2688 15.08843087107374,6917.871,95.437,540.75,538.722,0.0
52135.0,STARLINK-3729,PAYLOAD,2024-02-16 19:59:19,15.08853,0.0001455,53.2156,204.3485,90.5341,269.5817,0.00025481,3.771e-05,0.0,0 STARLINK-3729,1 52135U 22029AZ  24047.83286619  .00003771  00000-0  25481-3 0  9992,2 52135  53.2156 204.3485 0001455  90.5341 269.5817 15.08853000107436,6917.841,95.437,540.712,538.699,0.0
52135.0,STARLINK-3729,PAYLOAD,2024-02-17 03:56:16,15.0883601,0.0001954,53.2157,202.8634,79.8236,280.2976,9.942e-06,-1.3e-06,0.0,0 STARLINK-3729,1 52135U 22029AZ  24048.16407675 -.00000130  00000-0  99420-5 0  9999,2 52135  53.2157 202.8634 0001954  79.8236 280.2976 15.08836010107486,6917.893,95.438,541.109,538.406,0.0
52135.0,STARLINK-3729,PAYLOAD,2024-02-17 13:28:34,15.08837068,0.0001516,53.2156,201.0785,85.4128,274.7037,-2.5331e-05,-6.91e-06,0.0,0 STARLINK-3729,1 52135U 22029AZ  24048.56151545 -.00000691  00000-0 -25331-4 0  9997,2 52135  53.2156 201.0785 0001516  85.4128 274.7037 15.08837068107547,6917.889,95.438,540.803,538.706,0.0
52135.0,STARLINK-3729,PAYLOAD,2024-02-17 19:50:07,15.0884047,0.0001551,53.216,199.8883,85.6297,274.4873,2.2105e-05,6.4e-07,0.0,0 STARLINK-3729,1 52135U 22029AZ  24048.82647398  .00000064  00000-0  22105-4 0  9990,2 52135  53.2160 199.8883 0001551  85.6297 274.4873 15.08840470107583,6917.879,95.438,540.817,538.671,0.0
52135.0,STARLINK-3729,PAYLOAD,2024-02-18 14:54:44,15.08844943,0.0001614,53.2166,196.3199,85.3792,274.7384,0.00010259,1.345e-05,0.0,0 STARLINK-3729,1 52135U 22029AZ  24049.62135151  .00001345  00000-0  10259-3 0  9997,2 52135  53.2166 196.3199 0001614  85.3792 274.7384 15.08844943107701,6917.865,95.437,540.847,538.614,0.0
52135.0,STARLINK-3729,PAYLOAD,2024-02-18 19:40:53,15.08853008,0.0001322,53.215,195.426,81.4488,278.6654,0.00017747,2.539e-05,0.0,0 STARLINK-3729,1 52135U 22029AZ  24049.82006631  .00002539  00000-0  17747-3 0  9994,2 52135  53.2150 195.4260 0001322  81.4488 278.6654 15.08853008107736,6917.841,95.437,540.62,538.791,0.0
52135.0,STARLINK-3729,PAYLOAD,2024-02-19 09:59:22,15.08836688,0.0001907,53.2164,192.7498,83.0399,277.081,0.00014118,1.959e-05,0.0,0 STARLINK-3729,1 52135U 22029AZ  24050.41623737  .00001959  00000-0  14118-3 0  9997,2 52135  53.2164 192.7498 0001907  83.0399 277.0810 15.08836688107824,6917.891,95.438,541.075,538.436,0.0
52135.0,STARLINK-3729,PAYLOAD,2024-02-19 14:45:32,15.08838428,0.0001719,53.217,191.857,82.5569,277.5618,0.00010164,1.33e-05,0.0,0 STARLINK-3729,1 52135U 22029AZ  24050.61495611  .00001330  00000-0  10164-3 0  9997,2 52135  53.2170 191.8570 0001719  82.5569 277.5618 15.08838428107854,6917.885,95.438,540.939,538.561,0.0
52135.0,STARLINK-3729,PAYLOAD,2024-02-20 14:36:19,15.08837275,0.0001542,53.2168,187.3994,84.6805,275.4363,-4.3312e-05,-9.77e-06,0.0,0 STARLINK-3729,1 52135U 22029AZ  24051.60855921 -.00000977  00000-0 -43312-4 0  9991,2 52135  53.2168 187.3994 0001542  84.6805 275.4363 15.08837275108002,6917.889,95.438,540.82,538.687,0.0
52135.0,STARLINK-3729,PAYLOAD,2024-02-20 16:11:42,15.08840344,0.0001522,53.2166,187.1051,100.6353,259.4811,1.7782e-05,-5e-08,0.0,0 STARLINK-3729,1 52135U 22029AZ  24051.67479714 -.00000005  00000-0  17782-4 0  9993,2 52135  53.2166 187.1051 0001522 100.6353 259.4811 15.08840344108019,6917.879,95.438,540.797,538.691,0.0
52135.0,STARLINK-3729,PAYLOAD,2024-02-21 14:27:06,15.08845985,0.0001386,53.2156,182.9401,97.1671,262.9479,0.00019749,2.857e-05,0.0,0 STARLINK-3729,1 52135U 22029AZ  24052.60215530  .00002857  00000-0  19749-3 0  9991,2 52135  53.2156 182.9401 0001386  97.1671 262.9479 15.08845985108151,6917.862,95.437,540.686,538.768,0.0
52135.0,STARLINK-3729,PAYLOAD,2024-02-21 16:02:29,15.08849715,0.0001363,53.2161,182.643,94.5038,265.611,0.00024765,3.657e-05,0.0,0 STARLINK-3729,1 52135U 22029AZ  24052.66839329  .00003657  00000-0  24765-3 0  9998,2 52135  53.2161 182.6430 0001363  94.5038 265.6110 15.08849715108167,6917.851,95.437,540.659,538.773,0.0
52135.0,STARLINK-3729,PAYLOAD,2024-02-22 14:17:52,15.08841281,0.0001446,53.2161,178.4792,114.4526,245.6617,-0.00013873,-2.495e-05,0.0,0 STARLINK-3729,1 52135U 22029AZ  24053.59574614 -.00002495  00000-0 -13873-3 0  9993,2 52135  53.2161 178.4792 0001446 114.4526 245.6617 15.08841281108303,6917.876,95.437,540.742,538.741,0.0
52135.0,STARLINK-3729,PAYLOAD,2024-02-22 15:53:15,15.08839026,0.0001284,53.2159,178.1833,96.1478,263.9661,-0.00013903,-2.5e-05,0.0,0 STARLINK-3729,1 52135U 22029AZ  24053.66198832 -.00002500  00000-0 -13903-3 0  9996,2 52135  53.2159 178.1833 0001284  96.1478 263.9661 15.08839026108312,6917.883,95.438,540.637,538.86,0.0
52135.0,STARLINK-3729,PAYLOAD,2024-02-23 14:08:39,15.08835982,0.0001168,53.2148,174.0203,105.7174,254.3946,-0.00012484,-2.274e-05,0.0,0 STARLINK-3729,1 52135U 22029AZ  24054.58935130 -.00002274  00000-0 -12484-3 0  9999,2 52135  53.2148 174.0203 0001168 105.7174 254.3946 15.08835982108459,6917.893,95.438,540.566,538.95,0.0
52135.0,STARLINK-3729,PAYLOAD,2024-02-24 12:24:04,15.08832331,0.0001553,53.2163,169.8571,102.5719,257.5447,0.00021273,3.099e-05,0.0,0 STARLINK-3729,1 52135U 22029AZ  24055.51672192  .00003099  00000-0  21273-3 0  9999,2 52135  53.2163 169.8571 0001553 102.5719 257.5447 15.08832331108595,6917.904,95.438,540.843,538.694,0.0
52135.0,STARLINK-3729,PAYLOAD,2024-02-24 13:59:27,15.08840966,0.0001445,53.2154,169.5597,89.473,270.6427,5.4895e-05,5.86e-06,0.0,0 STARLINK-3729,1 52135U 22029AZ  24055.58295787  .00000586  00000-0  54895-4 0  9992,2 52135  53.2154 169.5597 0001445  89.4730 270.6427 15.08840966108605,6917.877,95.437,540.742,538.743,0.0
52135.0,STARLINK-3729,PAYLOAD,2024-02-24 17:10:13,15.08842225,0.000135,53.2155,168.9635,95.4645,264.6501,0.00034353,5.184e-05,0.0,0 STARLINK-3729,1 52135U 22029AZ  24055.71543859  .00005184  00000-0  34353-3 0  9998,2 52135  53.2155 168.9635 0001350  95.4645 264.6501 15.08842225108627,6917.874,95.437,540.673,538.805,0.0
52135.0,STARLINK-3729,PAYLOAD,2024-02-25 13:50:14,15.08851561,0.0001587,53.2161,165.0987,96.7073,263.41,0.00044936,6.873e-05,0.0,0 STARLINK-3729,1 52135U 22029AZ  24056.57655832  .00006873  00000-0  44936-3 0  9992,2 52135  53.2161 165.0987 0001587  96.7073 263.4100 15.08851561108752,6917.845,95.437,540.808,538.612,0.0
52135.0,STARLINK-3729,PAYLOAD,2024-02-26 12:05:39,15.08833414,0.0001635,53.2171,160.9324,96.0734,264.0444,2.8264e-05,1.62e-06,0.0,0 STARLINK-3729,1 52135U 22029AZ  24057.50392781  .00000162  00000-0  28264-4 0  9999,2 52135  53.2171 160.9324 0001635  96.0734 264.0444 15.08833414108893,6917.901,95.438,540.897,538.634,0.0
52135.0,STARLINK-3729,PAYLOAD,2024-02-26 13:41:02,15.08832952,0.0001641,53.2169,160.6355,98.5652,261.5526,3.8613e-05,3.26e-06,0.0,0 STARLINK-3729,1 52135U 22029AZ  24057.57016923  .00000326  00000-0  38613-4 0  9998,2 52135  53.2169 160.6355 0001641  98.5652 261.5526 15.08832952108905,6917.902,95.438,540.902,538.632,0.0
52135.0,STARLINK-3729,PAYLOAD,2024-02-26 16:51:48,15.08833223,0.0001662,53.2165,160.0397,98.0771,262.041,4.6867e-05,4.58e-06,0.0,0 STARLINK-3729,1 52135U 22029AZ  24057.70264932  .00000458  00000-0  46867-4 0  9994,2 52135  53.2165 160.0397 0001662  98.0771 262.0410 15.08833223108923,6917.901,95.438,540.916,538.616,0.0
52135.0,STARLINK-3729,PAYLOAD,2024-02-27 11:56:26,15.08847243,0.0001654,53.2164,156.4761,79.8991,280.2188,0.00015273,2.144e-05,0.0,0 STARLINK-3729,1 52135U 22029AZ  24058.49752347  .00002144  00000-0  15273-3 0  9993,2 52135  53.2164 156.4761 0001654  79.8991 280.2188 15.08847243109043,6917.858,95.437,540.867,538.579,0.0
52135.0,STARLINK-3729,PAYLOAD,2024-02-27 13:31:48,15.08856366,0.0001544,53.2165,156.1759,79.8233,280.2934,0.000413,6.294e-05,0.0,0 STARLINK-3729,1 52135U 22029AZ  24058.56376012  .00006294  00000-0  41300-3 0  9992,2 52135  53.2165 156.1759 0001544  79.8233 280.2934 15.08856366109051,6917.83,95.437,540.763,538.627,0.0
52135.0,STARLINK-3729,PAYLOAD,2024-02-28 11:47:13,15.08833452,0.0001693,53.2175,152.014,85.5725,274.546,4.7461e-05,4.67e-06,0.0,0 STARLINK-3729,1 52135U 22029AZ  24059.49113073  .00000467  00000-0  47461-4 0  9992,2 52135  53.2175 152.0140 0001693  85.5725 274.5460 15.08833452109192,6917.9,95.438,540.937,538.594,0.0
52135.0,STARLINK-3729,PAYLOAD,2024-02-28 13:22:36,15.08834084,0.0001752,53.2179,151.7201,93.4598,266.6595,6.9931e-05,8.25e-06,0.0,0 STARLINK-3729,1 52135U 22029AZ  24059.55737038  .00000825  00000-0  69931-4 0  9996,2 52135  53.2179 151.7201 0001752  93.4598 266.6595 15.08834084109207,6917.898,95.438,540.975,538.551,0.0
